ORBCOMM FM115           
1 41186U 15081H   26023.53987121  .00001426  00000+0  30944-3 0  9999
2 41186  46.9988  71.1719 0001377 308.5151  51.5613 14.63016430540034
ORBCOMM FM108           
1 41187U 15081J   26023.70251965  .00001534  00000+0  36231-3 0  9994
2 41187  47.0045 145.2050 0003330 246.5288 113.5248 14.58654504538983
ORBCOMM FM117           
1 41188U 15081K   26024.01025030  .00001293  00000+0  31132-3 0  9999
2 41188  47.0017 142.4292 0003687 257.1775 102.8699 14.58621510539077
ORBCOMM FM116           
1 41189U 15081L   26023.92232072  .00001150  00000+0  28073-3 0  9997
2 41189  47.0007 232.6239 0001325 124.4454 235.6557 14.58620904537877
